GLOBALSTAR M094         
1 39074U 13005C   25066.42526162 -.00000099  00000+0  28879-4 0  9995
2 39074  51.9950 131.9522 0000704  92.7136 267.3811 12.62268790559523
GLOBALSTAR M096         
1 39075U 13005D   25066.67607110 -.00000093  00000+0  61682-4 0  9999
2 39075  52.0065 179.6236 0000825  89.1399 270.9562 12.62268870558823
GLOBALSTAR M078         
1 39076U 13005E   25066.25307316 -.00000085  00000+0  10530-3 0  9995
2 39076  51.9857 265.5573 0000700  12.1984 347.8899 12.62259902557257
GLOBALSTAR M095         
1 39077U 13005F   25065.72566938 -.00000081  00000+0  12518-3 0  9998
2 39077  51.9782 264.4143 0000956  52.3986 307.6967 12.62267505556838
GLOBALSTAR M087         
1 52888U 22064A   25066.38981903 -.00000099  00000+0  27224-4 0  9994
2 52888  51.9802  43.7921 0000415  59.9162 300.1745 12.62269134132187
